[{"OBJECT_NAME":"STARLINK-31587","OBJECT_ID":"2024-076G","EPOCH":"2026-03-08T20:36:15.484320","MEAN_MOTION":15.27566597,"ECCENTRICITY":0.00016366,"INCLINATION":43.0037,"RA_OF_ASC_NODE":13.8613,"ARG_OF_PERICENTER":266.6818,"MEAN_ANOMALY":93.3846,"EPHEMERIS_TYPE":0,"CLASSIFICATION_TYPE":"U","NORAD_CAT_ID":59570,"ELEMENT_SET_NO":999,"REV_AT_EPOCH":10639,"BSTAR":9.7555693e-5,"MEAN_MOTION_DOT":2.422e-5,"MEAN_MOTION_DDOT":0},{"OBJECT_NAME":"KSLV-II R\/B","OBJECT_ID":"2023-072H","EPOCH":"2026-03-09T20:13:26.441760","MEAN_MOTION":15.33109439,"ECCENTRICITY":0.00241884,"INCLINATION":97.4991,"RA_OF_ASC_NODE":274.152,"ARG_OF_PERICENTER":318.2938,"MEAN_ANOMALY":41.646,"EPHEMERIS_TYPE":0,"CLASSIFICATION_TYPE":"U","NORAD_CAT_ID":56750,"ELEMENT_SET_NO":999,"REV_AT_EPOCH":15516,"BSTAR":0.00028309532,"MEAN_MOTION_DOT":9.057e-5,"MEAN_MOTION_DDOT":0}]
